<!doctype html>

<html>

<head>

<title>TLE for NORAD Catalog Number 44274</title>

</head>

<body>

<pre>
STARLINK-62             
1 44274U 19029AR  19302.07741876  .00002148  00000-0  16688-3 0  9994
2 44274  53.0003 182.0810 0002094  75.8315 284.2905 15.05501909 23941

</pre>
	
</body>

</html>
